M2 PATHFINDER           
1 45727U 20037E   26201.49532261  .00001249  00000+0  92944-4 0  9997
2 45727  97.8142  33.1041 0012419  45.5834 314.6406 15.04802029330502
NETSAT-4                
1 46504U 20068U   26201.49255661  .00010922  00000+0  23466-3 0  9991
2 46504  97.8611 212.4367 0005405 174.8181 185.3124 15.44867524320917
NETSAT-1                
1 46506U 20068W   26201.44645213  .00006906  00000+0  20396-3 0  9990
2 46506  97.8764 204.4930 0002782 232.1394 127.9596 15.35317638320409
GREENCUBE (IO-117)      
1 53109U 22080E   26201.17921782 -.00000003  00000+0  00000+0 0  9990
2 53109  70.1400 286.7734 0009088 282.4177  77.5466  6.42583323 94188
SITRO-AIS 6 (CHIRKIN)   
1 57192U 23091AC  26201.55107766  .00005567  00000+0  21587-3 0  9995
2 57192  97.5045 264.7203 0010624 357.5529   2.5656 15.26494165169372
SITRO-AIS 8 (ANOKHIN)   
1 57193U 23091AD  26201.58186660  .00008075  00000+0  25602-3 0  9998
2 57193  97.5033 267.5405 0008952 347.7567  12.3456 15.32940698169561
SITRO-AIS 7 (FARTUSHNIY)
1 57194U 23091AE  26201.56121732  .00005289  00000+0  20726-3 0  9992
2 57194  97.5041 264.5376 0010583 358.8100   1.3112 15.26166478169368
SITRO-AIS 10 (BURDAEV)  
1 57199U 23091AK  26201.59922044  .00012415  00000+0  31568-3 0  9990
2 57199  97.5057 272.9666 0004483 316.7421  43.3472 15.39750634169908
SITRO-AIS 9 (SHCHUKIN)  
1 57201U 23091AM  26201.57155680  .00011928  00000+0  30858-3 0  9995
2 57201  97.5056 272.6412 0004745 317.4690  42.6187 15.39231425169888
GRBBETA                 
1 60237U 24128C   26201.13651322  .00001868  00000+0  13754-3 0  9994
2 60237  61.9889 100.6458 0036427 141.7749 218.5938 15.06828268111230
OOV-CUBE (TUBSAT-30)    
1 60240U 24128F   26201.45672186  .00001048  00000+0  92250-4 0  9993
2 60240  61.9942 109.5533 0040424 141.1866 219.2141 15.02886563111111
ROBUSTA-3A (MEDITERRAN*)
1 60243U 24128J   26201.40294514  .00004019  00000+0  24198-3 0  9992
2 60243  61.9861  90.7487 0037384 134.7257 225.6893 15.12028946111441
LASARSAT                
1 62391U 24247Q   26201.02976853  .00020910  00000+0  39313-3 0  9994
2 62391  44.9739  77.3825 0008052 196.4765 163.5865 15.48248607 88403
CROCUBE                 
1 62394U 24247T   26200.91992558  .00025213  00000+0  43748-3 0  9992
2 62394  44.9711  74.7596 0008304 202.1601 157.8933 15.50428783 88428
KNACKSAT-2              
1 67683U 98067XZ  26201.50289186  .00036378  00000+0  39993-3 0  9992
2 67683  51.6270 126.5287 0007981 346.1806  13.8969 15.62776530 25484
